[{"OBJECT_NAME":"STARLINK-34301","OBJECT_ID":"2025-126F","EPOCH":"2026-03-09T22:58:14.561472","MEAN_MOTION":14.98349125,"ECCENTRICITY":0.00029288,"INCLINATION":70.0029,"RA_OF_ASC_NODE":33.715,"ARG_OF_PERICENTER":272.8168,"MEAN_ANOMALY":87.2656,"EPHEMERIS_TYPE":0,"CLASSIFICATION_TYPE":"U","NORAD_CAT_ID":64349,"ELEMENT_SET_NO":999,"REV_AT_EPOCH":4072,"BSTAR":0.0008648725,"MEAN_MOTION_DOT":0.00010247,"MEAN_MOTION_DDOT":0},{"OBJECT_NAME":"COSMOS 249 DEB","OBJECT_ID":"1968-091C","EPOCH":"2026-03-09T15:57:34.057728","MEAN_MOTION":12.91088099,"ECCENTRICITY":0.09422963,"INCLINATION":62.37,"RA_OF_ASC_NODE":144.4369,"ARG_OF_PERICENTER":243.9779,"MEAN_ANOMALY":106.128,"EPHEMERIS_TYPE":0,"CLASSIFICATION_TYPE":"U","NORAD_CAT_ID":3506,"ELEMENT_SET_NO":999,"REV_AT_EPOCH":69363,"BSTAR":0.00021351656,"MEAN_MOTION_DOT":3.55e-6,"MEAN_MOTION_DDOT":0}]
